FAUNA                   
1 43052U 17071R   19044.96162063  .00003060  00000-0  83524-4 0  9996
2 43052  51.6396 301.5033 0003061  84.9925 275.1409 15.40689498 66822
CORVUS BC3              
1 43118U 18004H   19044.75051649  .00000684  00000-0  32462-4 0  9994
2 43118  97.5028 112.4346 0009758 338.1636  21.9183 15.22630812 60460
MICROMAS-2A             
1 43131U 18004W   19044.91592847  .00001669  00000-0  72618-4 0  9998
2 43131  97.5045 113.0332 0008794 340.7088  19.3815 15.23639045 60512
CICERO 7                
1 43143U 18004AJ  19044.75688181  .00001249  00000-0  54783-4 0  9997
2 43143  97.5037 113.0738 0007251 354.2487   5.8665 15.23863698 60501
GOMX-4B                 
1 43196U 18015E   19044.94188961  .00000230  00000-0  12440-4 0  9992
2 43196  97.3719 174.4101 0019983  29.6587 330.5770 15.23807013 57340
GOMX-4A                 
1 43197U 18015F   19045.39717616  .00000381  00000-0  18630-4 0  9992
2 43197  97.3734 174.8725 0020248  30.3693   4.3255 15.23904520 57421
1KUNS-PF                
1 43466U 98067NP  19044.73337471  .00016814  00000-0  19721-3 0  9999
2 43466  51.6377 246.5339 0000264 138.9163 221.1851 15.61624716 43364
UBAKUSAT                
1 43467U 98067NQ  19044.98802089  .00010770  00000-0  13736-3 0  9994
2 43467  51.6372 246.7305 0001842 316.9700  43.1149 15.59878905 43396
BATSU-CS1 (IRAZU)       
1 43468U 98067NR  19044.75737809  .00022242  00000-0  24560-3 0  9991
2 43468  51.6372 245.1898 0000439 168.9504 191.1500 15.62977685143378
CUBERRT                 
1 43546U 98067NU  19044.90354148  .00017524  00000-0  21691-3 0  9995
2 43546  51.6375 249.1573 0005271  27.9321 332.1954 15.60169527 33488
TEMPEST-D               
1 43547U 98067NV  19044.90767000  .00004010  00000-0  62314-4 0  9995
2 43547  51.6378 251.4308 0005975  24.4248 335.7026 15.56507255 33135
RAINCUBE                
1 43548U 98067NW  19044.93261520  .00011321  00000-0  15212-3 0  9992
2 43548  51.6369 250.0985 0005500  33.6793 326.4548 15.58417951 33606
HALOSAT                 
1 43549U 98067NX  19044.80453170  .00009017  00000-0  12263-3 0  9995
2 43549  51.6371 250.7457 0005444  35.8501 324.2856 15.58394206 33143
ENDUROSAT ONE           
1 43551U 98067NZ  19044.73004821  .00013606  00000-0  17564-3 0  9993
2 43551  51.6379 250.2485 0005799  43.2891 316.8556 15.59284981 33556
EQUISAT                 
1 43552U 98067PA  19044.76635684  .00011279  00000-0  15007-3 0  9998
2 43552  51.6388 250.4961 0006213  42.1553 317.9916 15.58682349 33510
AEROCUBE 12A            
1 43556U 18046C   19045.16671138  .00001717  00000-0  74089-4 0  9992
2 43556  51.6425 293.8013 0008243 349.2456  10.8346 15.28296365 32514
AEROCUBE 12B            
1 43557U 18046D   19045.17178504  .00001270  00000-0  58276-4 0  9997
2 43557  51.6423 293.8335 0008261 349.5195  10.5611 15.28217572 32462
UITMSAT-1               
1 43589U 98067PD  19044.76442640  .00012812  00000-0  17099-3 0  9993
2 43589  51.6363 251.2184 0005573  52.3017 307.8481 15.58459174 29243
MAYA-1                  
1 43590U 98067PE  19043.60704899  .00010678  00000-0  14366-3 0  9996
2 43590  51.6363 256.9898 0005735  48.3502 311.7981 15.58454895 28998
BHUTAN-1                
1 43591U 98067PF  19044.94855372  .00012068  00000-0  16098-3 0  9997
2 43591  51.6375 250.2033 0005828  53.6315 306.5215 15.58537371 29202
SIRIUSSAT-1             
1 43595U 98067PG  19044.94353098  .00011170  00000-0  15285-3 0  9999
2 43595  51.6370 250.9132 0003047   7.5790 352.5248 15.57947447 28376
SIRIUSSAT-2             
1 43596U 98067PH  19045.08932681  .00011480  00000-0  15780-3 0  9991
2 43596  51.6379 250.4058 0003688   8.8620 351.2437 15.57793159 28392
TANUSHA-3               
1 43597U 98067PJ  19044.79155408  .00014682  00000-0  19457-3 0  9995
2 43597  51.6364 251.3792 0003144  25.7735 334.3414 15.58518822 28350
SURFSAT                 
1 43614U 18070B   19045.19690892  .00002591  00000-0  71599-4 0  9999
2 43614  93.0387 312.2371 0019181  69.4967 290.8342 15.36938978 23282
CP7 (DAVE)              
1 43615U 18070C   19044.80718678  .00002426  00000-0  67145-4 0  9999
2 43615  93.0388 312.0764 0019215  70.6270 289.7058 15.36898718 23229
ELFIN-B                 
1 43616U 18070D   19045.17963530  .00003591  00000-0  98100-4 0  9999
2 43616  93.0347 312.1726 0020239  71.9990 288.3467 15.37244024 23286
ELFIN-A                 
1 43617U 18070E   19045.17629525  .00003713  00000-0  10140-3 0  9996
2 43617  93.0405 312.2896 0019219  69.2001 291.1309 15.37278684 23286
DEBRISSAT-1             
1 43621U 98067PM  19044.59365773  .00351213  00000-0  13238-2 0  9993
2 43621  51.6350 241.8492 0004809 258.1870 101.8956 15.86263226 23455
CUBEBEL-1 (BSUSAT-1)    
1 43666U 18083E   19045.45954009  .00001014  00000-0  54232-4 0  9996
2 43666  97.5311  70.7263 0013718 260.1576 237.0514 15.17303290 16443
DEBRISSAT-2             
1 43680U 98067PR  19044.92440372  .00013437  00000-0  17957-3 0  9990
2 43680  51.6400 250.7848 0003248  52.1550 307.9737 15.58381222 37113
CICERO 10               
1 43690U 18088A   19045.16304384  .00000929  00000-0  41990-4 0  9992
2 43690  85.0365  40.4638 0013436 310.3946  49.6121 15.19401644 14428
IRVINE01                
1 43693U 18088D   19045.14779400  .00002394  00000-0  10650-3 0  9994
2 43693  85.0346  40.3185 0016476 294.0086  65.9430 15.20812163 14435
PROXIMA I               
1 43694U 18088E   19044.79071244  .00001003  00000-0  43107-4 0  9996
2 43694  85.0308  40.4641 0017300 285.4331  74.4999 15.21146584 14383
PROXIMA II              
1 43696U 18088G   19044.92188975  .00000992  00000-0  42616-4 0  9993
2 43696  85.0309  40.3779 0017331 284.8299  75.1023 15.21152890 14403
FACSAT-1                
1 43721U 18096C   19045.41659754  .00001410  00000-0  57651-4 0  9995
2 43721  97.4746 115.4257 0019486  51.4975 308.8007 15.25903445 11781
CENTAURI-2              
1 43722U 18096D   19045.41159310  .00001728  00000-0  69692-4 0  9999
2 43722  97.4745 115.4332 0019576  52.3248 307.9762 15.26031798 11779
CORVUS-BC 4             
1 43767U 18099K   19045.19505665  .00000117  00000-0  16128-4 0  9991
2 43767  97.7576 118.5507 0012277  25.5526 334.6299 14.94513526 10828
SHIELDS 1               
1 43850U 18104B   19044.71264504  .00000042  00000-0  00000+0 0  9996
2 43850  85.0323 139.0484 0017272  72.5863 287.7326 15.20961633  9024
STF-1                   
1 43852U 18104D   19045.33092784  .00000041  00000-0  00000+0 0  9995
2 43852  85.0362 138.7205 0017266  80.7246 279.5992 15.20334347  9119
LUME 1                  
1 43908U 18111AJ  19045.45779354  .00001005  00000-0  44017-4 0  9995
2 43908  97.2986 314.0507 0023513  71.1214 289.2570 15.24049632  7520
AOBA VELOX-IV           
1 43940U 19003J   19045.42077807  .00001499  00000-0  65525-4 0  9997
2 43940  97.2936 106.9347 0025707 146.6707 310.8523 15.23329345  4160
CATSAT-2                
1 44029U 98067PV  19045.14578423  .00007733  00000-0  12451-3 0  9998
2 44029  51.6386 253.0205 0005239  50.2975 309.8476 15.53994341  2197
DELPHINI                
1 44030U 98067PW  19044.75994652  .00009235  00000-0  14725-3 0  9997
2 44030  51.6385 254.9437 0004781  50.2359 309.9053 15.53997836  2107
UNITE                   
1 44031U 98067PX  19045.14569151  .00005987  00000-0  98114-4 0  9999
2 44031  51.6386 253.0194 0003455  50.1927 309.9368 15.53981807  2162
TECHEDSAT 8             
1 44032U 98067PY  19044.82257058  .00017715  00000-0  27251-3 0  9999
2 44032  51.6386 254.6116 0003303  52.7222 307.4069 15.54301350  2095
CATSAT-1                
1 44033U 98067PZ  19044.95264342  .00007108  00000-0  11496-3 0  9997
2 44033  51.6387 253.9803 0005193  50.9100 309.2352 15.54017558  2073
